ORBCOMM-X [-]           
1 21576U 91050C   23243.61779353  .00000358  00000+0  12193-3 0  9995
2 21576  98.4296 310.0190 0003910  24.3246 335.8128 14.42154967687597
ORBCOMM FM01 [-]        
1 23545U 95017A   23243.58229669  .00003580  00000+0  52690-3 0  9992
2 23545  69.9663 249.0787 0007732 248.4954 111.5370 14.76241216515353
ORBCOMM FM02 [-]        
1 23546U 95017B   23243.60431567  .00004219  00000+0  62715-3 0  9997
2 23546  69.9684 267.9703 0009165 239.6965 120.3276 14.75655792515013
ORBCOMM FM08 [-]        
1 25112U 97084A   23243.48755196  .00001256  00000+0  42982-3 0  9999
2 25112  45.0148 262.8624 0007654 197.5327 162.5259 14.41153927346641
ORBCOMM FM10 [-]        
1 25113U 97084B   23243.48246561  .00001032  00000+0  36161-3 0  9995
2 25113  45.0159 264.5822 0004307 177.3748 182.7125 14.41100128521790
ORBCOMM FM11 [+]        
1 25114U 97084C   23243.48109598  .00001045  00000+0  36618-3 0  9995
2 25114  45.0144 264.4663 0005023 173.9053 186.1858 14.40990106346769
ORBCOMM FM12 [-]        
1 25115U 97084D   23243.22908595  .00001113  00000+0  38745-3 0  9991
2 25115  45.0151 265.3035 0004160 179.4589 180.6265 14.40986728346527
ORBCOMM FM09 [-]        
1 25116U 97084E   23243.85931430  .00001078  00000+0  37672-3 0  9993
2 25116  45.0156 262.9259 0004628 157.5833 202.5219 14.40968015346827
